*******************************************************************************
Ephemeris / WWW_USER Mon Dec 26 17:42:23 2016 Pasadena, USA      / Horizons    
*******************************************************************************
Target body name: Moon (301)                      {source: DE431mx}
Center body name: Earth (399)                     {source: DE431mx}
Center-site name: (user defined site below)
*******************************************************************************
Start time      : A.D. 2018-Oct-01 00:00:00.0000 UT      
Stop  time      : A.D. 2019-Jan-02 00:00:00.0000 UT      
Step-size       : 2 minutes
*******************************************************************************
Target pole/equ : IAU_MOON                        {East-longitude +}
Target radii    : 1737.4 x 1737.4 x 1737.4 km     {Equator, meridian, pole}    
Center geodetic : 284.844200,39.9494000,-1.01E-12 {E-lon(deg),Lat(deg),Alt(km)}
Center cylindric: 284.844200,4896.31709,4073.6801 {E-lon(deg),Dxy(km),Dz(km)}
Center pole/equ : High-precision EOP model        {East-longitude +}
Center radii    : 6378.1 x 6378.1 x 6356.8 km     {Equator, meridian, pole}    
Target primary  : Earth
Vis. interferer : MOON (R_eq= 1737.400) km        {source: DE431mx}
Rel. light bend : Sun, EARTH                      {source: DE431mx}
Rel. lght bnd GM: 1.3271E+11, 3.9860E+05 km^3/s^2                              
Atmos refraction: NO (AIRLESS)
RA format       : HMS
Time format     : CAL 
RTS-only print  : NO       
EOP file        : eop.161226.p170319                                           
EOP coverage    : DATA-BASED 1962-JAN-20 TO 2016-DEC-26. PREDICTS-> 2017-MAR-18
Units conversion: 1 au= 149597870.700 km, c= 299792.458 km/s, 1 day= 86400.0 s 
Table cut-offs 1: Elevation (-90.0deg=NO ),Airmass (>38.000=NO), Daylight (NO )
Table cut-offs 2: Solar Elongation (  0.0,180.0=NO ),Local Hour Angle( 0.0=NO )
*******************************************************************************
 Date__(UT)__HR:MN     Azi_(a-appr)_Elev
****************************************
$$SOE
 2018-Oct-15 16:00 *   105.2233 -15.8907
 2018-Oct-15 16:02 *   105.5078 -15.5349
 2018-Oct-15 16:04 *   105.7925 -15.1795
 2018-Oct-15 16:06 *   106.0774 -14.8246
 2018-Oct-15 16:08 *   106.3625 -14.4702
 2018-Oct-15 16:10 *   106.6479 -14.1163
 2018-Oct-15 16:12 *   106.9336 -13.7628
 2018-Oct-15 16:14 *   107.2196 -13.4099
 2018-Oct-15 16:16 *   107.5059 -13.0574
 2018-Oct-15 16:18 *   107.7925 -12.7055
 2018-Oct-15 16:20 *   108.0795 -12.3541
 2018-Oct-15 16:22 *   108.3669 -12.0033
 2018-Oct-15 16:24 *   108.6546 -11.6530
 2018-Oct-15 16:26 *   108.9428 -11.3032
 2018-Oct-15 16:28 *   109.2314 -10.9541
 2018-Oct-15 16:30 *   109.5205 -10.6055
 2018-Oct-15 16:32 *   109.8100 -10.2575
 2018-Oct-15 16:34 *   110.1001  -9.9101
 2018-Oct-15 16:36 *   110.3906  -9.5633
 2018-Oct-15 16:38 *   110.6817  -9.2171
 2018-Oct-15 16:40 *   110.9733  -8.8716
 2018-Oct-15 16:42 *   111.2655  -8.5267
 2018-Oct-15 16:44 *   111.5583  -8.1824
 2018-Oct-15 16:46 *   111.8517  -7.8388
 2018-Oct-15 16:48 *   112.1457  -7.4959
 2018-Oct-15 16:50 *   112.4403  -7.1537
 2018-Oct-15 16:52 *   112.7357  -6.8121
 2018-Oct-15 16:54 *   113.0317  -6.4713
 2018-Oct-15 16:56 *   113.3284  -6.1312
 2018-Oct-15 16:58 *   113.6258  -5.7918
 2018-Oct-15 17:00 *   113.9239  -5.4531
 2018-Oct-15 17:02 *   114.2228  -5.1152
 2018-Oct-15 17:04 *   114.5225  -4.7781
 2018-Oct-15 17:06 *   114.8230  -4.4417
 2018-Oct-15 17:08 *   115.1242  -4.1061
 2018-Oct-15 17:10 *   115.4263  -3.7713
 2018-Oct-15 17:12 *   115.7292  -3.4373
 2018-Oct-15 17:14 *   116.0330  -3.1041
 2018-Oct-15 17:16 *   116.3377  -2.7718
 2018-Oct-15 17:18 *   116.6433  -2.4403
 2018-Oct-15 17:20 *   116.9498  -2.1096
 2018-Oct-15 17:22 *   117.2572  -1.7799
 2018-Oct-15 17:24 *   117.5655  -1.4510
 2018-Oct-15 17:26 *   117.8749  -1.1230
 2018-Oct-15 17:28 *r  118.1852  -0.7959
 2018-Oct-15 17:30 *m  118.4965  -0.4697
 2018-Oct-15 17:32 *m  118.8088  -0.1444
 2018-Oct-15 17:34 *m  119.1222   0.1799
 2018-Oct-15 17:36 *m  119.4366   0.5032
 2018-Oct-15 17:38 *m  119.7521   0.8256
 2018-Oct-15 17:40 *m  120.0687   1.1470
 2018-Oct-15 17:42 *m  120.3863   1.4674
 2018-Oct-15 17:44 *m  120.7051   1.7868
 2018-Oct-15 17:46 *m  121.0251   2.1051
 2018-Oct-15 17:48 *m  121.3462   2.4224
 2018-Oct-15 17:50 *m  121.6684   2.7387
 2018-Oct-15 17:52 *m  121.9919   3.0539
 2018-Oct-15 17:54 *m  122.3165   3.3680
 2018-Oct-15 17:56 *m  122.6424   3.6810
 2018-Oct-15 17:58 *m  122.9695   3.9929
 2018-Oct-15 18:00 *m  123.2979   4.3037
 2018-Oct-15 18:02 *m  123.6275   4.6133
 2018-Oct-15 18:04 *m  123.9584   4.9218
 2018-Oct-15 18:06 *m  124.2907   5.2291
 2018-Oct-15 18:08 *m  124.6242   5.5352
 2018-Oct-15 18:10 *m  124.9591   5.8401
 2018-Oct-15 18:12 *m  125.2953   6.1438
 2018-Oct-15 18:14 *m  125.6329   6.4463
 2018-Oct-15 18:16 *m  125.9719   6.7475
 2018-Oct-15 18:18 *m  126.3123   7.0474
 2018-Oct-15 18:20 *m  126.6541   7.3461
 2018-Oct-15 18:22 *m  126.9973   7.6435
 2018-Oct-15 18:24 *m  127.3420   7.9395
 2018-Oct-15 18:26 *m  127.6882   8.2342
 2018-Oct-15 18:28 *m  128.0358   8.5276
 2018-Oct-15 18:30 *m  128.3849   8.8196
 2018-Oct-15 18:32 *m  128.7355   9.1102
 2018-Oct-15 18:34 *m  129.0876   9.3994
 2018-Oct-15 18:36 *m  129.4412   9.6872
 2018-Oct-15 18:38 *m  129.7964   9.9736
 2018-Oct-15 18:40 *m  130.1532  10.2585
 2018-Oct-15 18:42 *m  130.5116  10.5419
 2018-Oct-15 18:44 *m  130.8715  10.8239
 2018-Oct-15 18:46 *m  131.2330  11.1043
 2018-Oct-15 18:48 *m  131.5962  11.3832
 2018-Oct-15 18:50 *m  131.9610  11.6606
 2018-Oct-15 18:52 *m  132.3274  11.9364
 2018-Oct-15 18:54 *m  132.6955  12.2106
 2018-Oct-15 18:56 *m  133.0652  12.4832
 2018-Oct-15 18:58 *m  133.4366  12.7542
 2018-Oct-15 19:00 *m  133.8098  13.0236
 2018-Oct-15 19:02 *m  134.1846  13.2913
 2018-Oct-15 19:04 *m  134.5611  13.5573
 2018-Oct-15 19:06 *m  134.9394  13.8216
 2018-Oct-15 19:08 *m  135.3194  14.0842
 2018-Oct-15 19:10 *m  135.7011  14.3451
 2018-Oct-15 19:12 *m  136.0846  14.6042
 2018-Oct-15 19:14 *m  136.4699  14.8615
 2018-Oct-15 19:16 *m  136.8570  15.1170
 2018-Oct-15 19:18 *m  137.2458  15.3707
 2018-Oct-15 19:20 *m  137.6364  15.6226
 2018-Oct-15 19:22 *m  138.0289  15.8726
 2018-Oct-15 19:24 *m  138.4231  16.1207
 2018-Oct-15 19:26 *m  138.8192  16.3670
 2018-Oct-15 19:28 *m  139.2171  16.6113
 2018-Oct-15 19:30 *m  139.6168  16.8536
 2018-Oct-15 19:32 *m  140.0184  17.0940
 2018-Oct-15 19:34 *m  140.4218  17.3324
 2018-Oct-15 19:36 *m  140.8271  17.5688
 2018-Oct-15 19:38 *m  141.2342  17.8031
 2018-Oct-15 19:40 *m  141.6432  18.0355
 2018-Oct-15 19:42 *m  142.0541  18.2657
 2018-Oct-15 19:44 *m  142.4668  18.4938
 2018-Oct-15 19:46 *m  142.8814  18.7199
 2018-Oct-15 19:48 *m  143.2979  18.9437
 2018-Oct-15 19:50 *m  143.7163  19.1655
 2018-Oct-15 19:52 *m  144.1365  19.3850
 2018-Oct-15 19:54 *m  144.5587  19.6023
 2018-Oct-15 19:56 *m  144.9827  19.8175
 2018-Oct-15 19:58 *m  145.4086  20.0303
 2018-Oct-15 20:00 *m  145.8364  20.2409
 2018-Oct-15 20:02 *m  146.2660  20.4492
 2018-Oct-15 20:04 *m  146.6976  20.6552
 2018-Oct-15 20:06 *m  147.1310  20.8588
 2018-Oct-15 20:08 *m  147.5663  21.0601
 2018-Oct-15 20:10 *m  148.0035  21.2590
 2018-Oct-15 20:12 *m  148.4425  21.4555
 2018-Oct-15 20:14 *m  148.8834  21.6495
 2018-Oct-15 20:16 *m  149.3261  21.8411
 2018-Oct-15 20:18 *m  149.7708  22.0303
 2018-Oct-15 20:20 *m  150.2172  22.2169
 2018-Oct-15 20:22 *m  150.6655  22.4010
 2018-Oct-15 20:24 *m  151.1156  22.5826
 2018-Oct-15 20:26 *m  151.5675  22.7617
 2018-Oct-15 20:28 *m  152.0212  22.9381
 2018-Oct-15 20:30 *m  152.4768  23.1120
 2018-Oct-15 20:32 *m  152.9341  23.2832
 2018-Oct-15 20:34 *m  153.3931  23.4518
 2018-Oct-15 20:36 *m  153.8540  23.6177
 2018-Oct-15 20:38 *m  154.3166  23.7809
 2018-Oct-15 20:40 *m  154.7809  23.9414
 2018-Oct-15 20:42 *m  155.2469  24.0992
 2018-Oct-15 20:44 *m  155.7146  24.2542
 2018-Oct-15 20:46 *m  156.1840  24.4064
 2018-Oct-15 20:48 *m  156.6551  24.5559
 2018-Oct-15 20:50 *m  157.1278  24.7025
 2018-Oct-15 20:52 *m  157.6022  24.8463
 2018-Oct-15 20:54 *m  158.0781  24.9873
 2018-Oct-15 20:56 *m  158.5557  25.1254
 2018-Oct-15 20:58 *m  159.0348  25.2606
 2018-Oct-15 21:00 *m  159.5154  25.3928
 2018-Oct-15 21:02 *m  159.9976  25.5222
 2018-Oct-15 21:04 *m  160.4812  25.6486
 2018-Oct-15 21:06 *m  160.9663  25.7720
 2018-Oct-15 21:08 *m  161.4529  25.8924
 2018-Oct-15 21:10 *m  161.9408  26.0099
 2018-Oct-15 21:12 *m  162.4302  26.1243
 2018-Oct-15 21:14 *m  162.9209  26.2357
 2018-Oct-15 21:16 *m  163.4129  26.3440
 2018-Oct-15 21:18 *m  163.9063  26.4493
 2018-Oct-15 21:20 *m  164.4009  26.5514
 2018-Oct-15 21:22 *m  164.8967  26.6505
 2018-Oct-15 21:24 *m  165.3937  26.7464
 2018-Oct-15 21:26 *m  165.8920  26.8392
 2018-Oct-15 21:28 *m  166.3913  26.9289
 2018-Oct-15 21:30 *m  166.8918  27.0154
 2018-Oct-15 21:32 *m  167.3933  27.0987
 2018-Oct-15 21:34 *m  167.8959  27.1789
 2018-Oct-15 21:36 *m  168.3994  27.2558
 2018-Oct-15 21:38 *m  168.9039  27.3295
 2018-Oct-15 21:40 *m  169.4094  27.4000
 2018-Oct-15 21:42 *m  169.9157  27.4672
 2018-Oct-15 21:44 *m  170.4229  27.5313
 2018-Oct-15 21:46 *m  170.9309  27.5920
 2018-Oct-15 21:48 *m  171.4396  27.6495
 2018-Oct-15 21:50 *m  171.9491  27.7037
 2018-Oct-15 21:52 *m  172.4592  27.7546
 2018-Oct-15 21:54 *m  172.9700  27.8022
 2018-Oct-15 21:56 *m  173.4814  27.8465
 2018-Oct-15 21:58 *m  173.9934  27.8875
 2018-Oct-15 22:00 *m  174.5059  27.9252
 2018-Oct-15 22:02 *m  175.0188  27.9596
 2018-Oct-15 22:04 *m  175.5322  27.9906
 2018-Oct-15 22:06 *m  176.0460  28.0183
 2018-Oct-15 22:08 *m  176.5601  28.0426
 2018-Oct-15 22:10 *m  177.0746  28.0636
 2018-Oct-15 22:12 *m  177.5893  28.0813
 2018-Oct-15 22:14 *m  178.1042  28.0956
 2018-Oct-15 22:16 *m  178.6192  28.1066
 2018-Oct-15 22:18 *m  179.1344  28.1142
 2018-Oct-15 22:20 *m  179.6497  28.1184
 2018-Oct-15 22:22 Ct  180.1650  28.1193
